CCSDS_OMM_VERS = 2.0
CREATION_DATE  = 
ORIGINATOR     = 

OBJECT_NAME    = CZ-2C R/B
OBJECT_ID      = 2022-132E
CENTER_NAME    = EARTH
REF_FRAME      = TEME
TIME_SYSTEM    = UTC
MEAN_ELEMENT_THEORY = SGP/SGP4

EPOCH          = 2026-01-10T22:27:03.710304
MEAN_MOTION    = 15.56946827
ECCENTRICITY   = .00174711
INCLINATION    = 97.2952
RA_OF_ASC_NODE = 12.7365
ARG_OF_PERICENTER = 310.4488
MEAN_ANOMALY   = 49.5243

EPHEMERIS_TYPE = 0
CLASSIFICATION_TYPE = U
NORAD_CAT_ID   = 54039
ELEMENT_SET_NO = 999
REV_AT_EPOCH   = 18137
BSTAR          = .46049173E-3
MEAN_MOTION_DOT = .33374E-3
MEAN_MOTION_DDOT = 0

CCSDS_OMM_VERS = 2.0
CREATION_DATE  = 
ORIGINATOR     = 

OBJECT_NAME    = GSLV R/B
OBJECT_ID      = 2022-138AN
CENTER_NAME    = EARTH
REF_FRAME      = TEME
TIME_SYSTEM    = UTC
MEAN_ELEMENT_THEORY = SGP/SGP4

EPOCH          = 2026-01-10T22:46:07.265280
MEAN_MOTION    = 14.96316303
ECCENTRICITY   = .00220603
INCLINATION    = 87.3830
RA_OF_ASC_NODE = 185.6898
ARG_OF_PERICENTER = 7.6843
MEAN_ANOMALY   = 352.4722

EPHEMERIS_TYPE = 0
CLASSIFICATION_TYPE = U
NORAD_CAT_ID   = 54149
ELEMENT_SET_NO = 999
REV_AT_EPOCH   = 17529
BSTAR          = .28369357E-3
MEAN_MOTION_DOT = .3249E-4
MEAN_MOTION_DDOT = 0

CCSDS_OMM_VERS = 2.0
CREATION_DATE  = 
ORIGINATOR     = 

OBJECT_NAME    = XRISM
OBJECT_ID      = 2023-137A
CENTER_NAME    = EARTH
REF_FRAME      = TEME
TIME_SYSTEM    = UTC
MEAN_ELEMENT_THEORY = SGP/SGP4

EPOCH          = 2026-01-10T21:49:40.941696
MEAN_MOTION    = 15.10733691
ECCENTRICITY   = .00078556
INCLINATION    = 31.0026
RA_OF_ASC_NODE = 297.1660
ARG_OF_PERICENTER = 181.6637
MEAN_ANOMALY   = 178.3976

EPHEMERIS_TYPE = 0
CLASSIFICATION_TYPE = U
NORAD_CAT_ID   = 57800
ELEMENT_SET_NO = 999
REV_AT_EPOCH   = 12904
BSTAR          = .31484789E-3
MEAN_MOTION_DOT = .5449E-4
MEAN_MOTION_DDOT = 0

CCSDS_OMM_VERS = 2.0
CREATION_DATE  = 
ORIGINATOR     = 

OBJECT_NAME    = ACS3
OBJECT_ID      = 2024-077B
CENTER_NAME    = EARTH
REF_FRAME      = TEME
TIME_SYSTEM    = UTC
MEAN_ELEMENT_THEORY = SGP/SGP4

EPOCH          = 2026-01-10T11:32:44.015136
MEAN_MOTION    = 13.87005790
ECCENTRICITY   = .00632744
INCLINATION    = 97.2454
RA_OF_ASC_NODE = 324.6642
ARG_OF_PERICENTER = 265.6958
MEAN_ANOMALY   = 93.6972

EPHEMERIS_TYPE = 0
CLASSIFICATION_TYPE = U
NORAD_CAT_ID   = 59588
ELEMENT_SET_NO = 999
REV_AT_EPOCH   = 8612
BSTAR          = .95547782E-2
MEAN_MOTION_DOT = .11346E-3
MEAN_MOTION_DDOT = 0

CCSDS_OMM_VERS = 2.0
CREATION_DATE  = 
ORIGINATOR     = 

OBJECT_NAME    = SZ-21 MODULE
OBJECT_ID      = 2025-246C
CENTER_NAME    = EARTH
REF_FRAME      = TEME
TIME_SYSTEM    = UTC
MEAN_ELEMENT_THEORY = SGP/SGP4

EPOCH          = 2026-01-10T22:12:13.941504
MEAN_MOTION    = 15.64286887
ECCENTRICITY   = .00015072
INCLINATION    = 41.4742
RA_OF_ASC_NODE = 197.7803
ARG_OF_PERICENTER = 129.4079
MEAN_ANOMALY   = 230.6895

EPHEMERIS_TYPE = 0
CLASSIFICATION_TYPE = U
NORAD_CAT_ID   = 66515
ELEMENT_SET_NO = 999
REV_AT_EPOCH   = 901
BSTAR          = .30076067E-3
MEAN_MOTION_DOT = .29319E-3
MEAN_MOTION_DDOT = 0

