CZ-2C R/B               
1 54039U 22132E   26010.93545961  .00033374  00000+0  46049-3 0  9997
2 54039  97.2952  12.7365 0017471 310.4488  49.5243 15.56946827181379
GSLV R/B                
1 54149U 22138AN  26010.94869520  .00003249  00000+0  28369-3 0  9999
2 54149  87.3830 185.6898 0022060   7.6843 352.4722 14.96316303175292
XRISM                   
1 57800U 23137A   26010.90950164  .00005449  00000+0  31485-3 0  9994
2 57800  31.0026 297.1660 0007855 181.6637 178.3976 15.10733691129045
ACS3                    
1 59588U 24077B   26010.48106499  .00011346  00000+0  95548-2 0  9992
2 59588  97.2454 324.6642 0063274 265.6958  93.6972 13.87005790 86121
SZ-21 MODULE            
1 66515U 25246C   26010.92516136  .00029319  00000+0  30076-3 0  9996
2 66515  41.4742 197.7803 0001507 129.4079 230.6895 15.64286887  9015
